{
  "type": "FeatureCollection",
  "features": [
    {
      "type": "Feature",
      "properties": {
        "norad_id": 33986,
        "name": "COSMOS 2251 DEB",
        "group": "cosmos-2251-debris",
        "lat": 36.13317233858035,
        "lon": 96.83744540406776,
        "alt_km": 767.8577936264028,
        "timestamp": "2025-12-20T03:42:47.787487+00:00",
        "meta_object_name": "COSMOS 2251 DEB",
        "meta_object_id": "1993-036FV",
        "meta_epoch": "2025-12-18T21:25:07.387968",
        "meta_mean_motion": 14.43233693,
        "meta_eccentricity": 0.00407833,
        "meta_inclination": 74.0369,
        "meta_ra_of_asc_node": 291.2436,
        "meta_arg_of_pericenter": 2.5986,
        "meta_mean_anomaly": 63.5229,
        "meta_ephemeris_type": 0,
        "meta_classification_type": "U",
        "meta_norad_cat_id": 33986,
        "meta_element_set_no": 999,
        "meta_rev_at_epoch": 88117,
        "meta_bstar": 0.00054447356,
        "meta_mean_motion_dot": 1.824e-05,
        "meta_mean_motion_ddot": 0,
        "tle_line1": "1 33986U 93036FV  25352.89244662  .00001824  00000+0  54447-3 0  9999",
        "tle_line2": "2 33986  74.0369 291.2436 0040783   2.5986  63.5229 14.43233693881179"
      },
      "geometry": {
        "type": "Point",
        "coordinates": [
          96.83744540406776,
          36.13317233858035
        ]
      }
    },
    {
      "type": "Feature",
      "properties": {
        "norad_id": 33990,
        "name": "COSMOS 2251 DEB",
        "group": "cosmos-2251-debris",
        "lat": -40.38491512568505,
        "lon": 108.28466439793814,
        "alt_km": 967.3724949175667,
        "timestamp": "2025-12-20T03:42:47.787497+00:00",
        "meta_object_name": "COSMOS 2251 DEB",
        "meta_object_id": "1993-036FZ",
        "meta_epoch": "2025-12-19T06:01:39.087840",
        "meta_mean_motion": 13.50004912,
        "meta_eccentricity": 0.0407443,
        "meta_inclination": 73.9284,
        "meta_ra_of_asc_node": 275.5406,
        "meta_arg_of_pericenter": 294.6793,
        "meta_mean_anomaly": 222.2317,
        "meta_ephemeris_type": 0,
        "meta_classification_type": "U",
        "meta_norad_cat_id": 33990,
        "meta_element_set_no": 999,
        "meta_rev_at_epoch": 82817,
        "meta_bstar": 0.00070112,
        "meta_mean_motion_dot": 7.23e-06,
        "meta_mean_motion_ddot": 0,
        "tle_line1": "1 33990U 93036FZ  25353.25114685  .00000723  00000+0  70112-3 0  9990",
        "tle_line2": "2 33990  73.9284 275.5406 0407443 294.6793 222.2317 13.50004912828170"
      },
      "geometry": {
        "type": "Point",
        "coordinates": [
          108.28466439793814,
          -40.38491512568505
        ]
      }
    },
    {
      "type": "Feature",
      "properties": {
        "norad_id": 33992,
        "name": "COSMOS 2251 DEB",
        "group": "cosmos-2251-debris",
        "lat": -65.49077691387748,
        "lon": -177.63626268061904,
        "alt_km": 715.9989948276789,
        "timestamp": "2025-12-20T03:42:47.787507+00:00",
        "meta_object_name": "COSMOS 2251 DEB",
        "meta_object_id": "1993-036GB",
        "meta_epoch": "2025-12-19T09:04:41.909376",
        "meta_mean_motion": 14.6626337,
        "meta_eccentricity": 0.0051712,
        "meta_inclination": 74.0238,
        "meta_ra_of_asc_node": 324.9309,
        "meta_arg_of_pericenter": 80.7442,
        "meta_mean_anomaly": 33.4272,
        "meta_ephemeris_type": 0,
        "meta_classification_type": "U",
        "meta_norad_cat_id": 33992,
        "meta_element_set_no": 999,
        "meta_rev_at_epoch": 89222,
        "meta_bstar": 0.00053797,
        "meta_mean_motion_dot": 2.994e-05,
        "meta_mean_motion_ddot": 0,
        "tle_line1": "1 33992U 93036GB  25353.37826284  .00002994  00000+0  53797-3 0  9992",
        "tle_line2": "2 33992  74.0238 324.9309 0051712  80.7442  33.4272 14.66263370892225"
      },
      "geometry": {
        "type": "Point",
        "coordinates": [
          -177.63626268061904,
          -65.49077691387748
        ]
      }
    },
    {
      "type": "Feature",
      "properties": {
        "norad_id": 33994,
        "name": "COSMOS 2251 DEB",
        "group": "cosmos-2251-debris",
        "lat": -34.451367154398014,
        "lon": 8.00898355607825,
        "alt_km": 761.4175857293294,
        "timestamp": "2025-12-20T03:42:47.787517+00:00",
        "meta_object_name": "COSMOS 2251 DEB",
        "meta_object_id": "1993-036GD",
        "meta_epoch": "2025-12-19T20:34:56.271072",
        "meta_mean_motion": 14.41218692,
        "meta_eccentricity": 0.0023841,
        "meta_inclination": 74.0416,
        "meta_ra_of_asc_node": 177.2377,
        "meta_arg_of_pericenter": 310.3411,
        "meta_mean_anomaly": 164.9055,
        "meta_ephemeris_type": 0,
        "meta_classification_type": "U",
        "meta_norad_cat_id": 33994,
        "meta_element_set_no": 999,
        "meta_rev_at_epoch": 88522,
        "meta_bstar": 6.6438e-05,
        "meta_mean_motion_dot": 1.88e-06,
        "meta_mean_motion_ddot": 0,
        "tle_line1": "1 33994U 93036GD  25353.85759573  .00000188  00000+0  66438-4 0  9993",
        "tle_line2": "2 33994  74.0416 177.2377 0023841 310.3411 164.9055 14.41218692885220"
      },
      "geometry": {
        "type": "Point",
        "coordinates": [
          8.00898355607825,
          -34.451367154398014
        ]
      }
    },
    {
      "type": "Feature",
      "properties": {
        "norad_id": 33995,
        "name": "COSMOS 2251 DEB",
        "group": "cosmos-2251-debris",
        "lat": 55.54153008256899,
        "lon": -98.82303607089553,
        "alt_km": 727.4372991060918,
        "timestamp": "2025-12-20T03:42:47.787527+00:00",
        "meta_object_name": "COSMOS 2251 DEB",
        "meta_object_id": "1993-036GE",
        "meta_epoch": "2025-12-19T13:46:03.913824",
        "meta_mean_motion": 14.3480458,
        "meta_eccentricity": 0.0059643,
        "meta_inclination": 74.0617,
        "meta_ra_of_asc_node": 106.8494,
        "meta_arg_of_pericenter": 119.3604,
        "meta_mean_anomaly": 241.3523,
        "meta_ephemeris_type": 0,
        "meta_classification_type": "U",
        "meta_norad_cat_id": 33995,
        "meta_element_set_no": 999,
        "meta_rev_at_epoch": 87617,
        "meta_bstar": 0.00059432,
        "meta_mean_motion_dot": 1.695e-05,
        "meta_mean_motion_ddot": 0,
        "tle_line1": "1 33995U 93036GE  25353.57365641  .00001695  00000+0  59432-3 0  9991",
        "tle_line2": "2 33995  74.0617 106.8494 0059643 119.3604 241.3523 14.34804580876175"
      },
      "geometry": {
        "type": "Point",
        "coordinates": [
          -98.82303607089553,
          55.54153008256899
        ]
      }
    },
    {
      "type": "Feature",
      "properties": {
        "norad_id": 33999,
        "name": "COSMOS 2251 DEB",
        "group": "cosmos-2251-debris",
        "lat": 41.309222839995115,
        "lon": 21.30192182140305,
        "alt_km": 586.9508018584975,
        "timestamp": "2025-12-20T03:42:47.787537+00:00",
        "meta_object_name": "COSMOS 2251 DEB",
        "meta_object_id": "1993-036GJ",
        "meta_epoch": "2025-12-19T01:12:27.249696",
        "meta_mean_motion": 14.83485098,
        "meta_eccentricity": 0.00444173,
        "meta_inclination": 73.9181,
        "meta_ra_of_asc_node": 218.1903,
        "meta_arg_of_pericenter": 111.8803,
        "meta_mean_anomaly": 248.7107,
        "meta_ephemeris_type": 0,
        "meta_classification_type": "U",
        "meta_norad_cat_id": 33999,
        "meta_element_set_no": 999,
        "meta_rev_at_epoch": 89344,
        "meta_bstar": 0.00093991228,
        "meta_mean_motion_dot": 7.837e-05,
        "meta_mean_motion_ddot": 0,
        "tle_line1": "1 33999U 93036GJ  25353.05031539  .00007837  00000+0  93991-3 0  9996",
        "tle_line2": "2 33999  73.9181 218.1903 0044417 111.8803 248.7107 14.83485098893447"
      },
      "geometry": {
        "type": "Point",
        "coordinates": [
          21.30192182140305,
          41.309222839995115
        ]
      }
    },
    {
      "type": "Feature",
      "properties": {
        "norad_id": 34001,
        "name": "COSMOS 2251 DEB",
        "group": "cosmos-2251-debris",
        "lat": -21.87565570869683,
        "lon": -98.6451774454646,
        "alt_km": 758.7900864173216,
        "timestamp": "2025-12-20T03:42:47.787547+00:00",
        "meta_object_name": "COSMOS 2251 DEB",
        "meta_object_id": "1993-036GL",
        "meta_epoch": "2025-12-19T17:55:33.002400",
        "meta_mean_motion": 14.37106351,
        "meta_eccentricity": 0.002027,
        "meta_inclination": 74.0388,
        "meta_ra_of_asc_node": 268.7028,
        "meta_arg_of_pericenter": 348.412,
        "meta_mean_anomaly": 39.9479,
        "meta_ephemeris_type": 0,
        "meta_classification_type": "U",
        "meta_norad_cat_id": 34001,
        "meta_element_set_no": 999,
        "meta_rev_at_epoch": 88247,
        "meta_bstar": 0.00013782,
        "meta_mean_motion_dot": 3.84e-06,
        "meta_mean_motion_ddot": 0,
        "tle_line1": "1 34001U 93036GL  25353.74690975  .00000384  00000+0  13782-3 0  9992",
        "tle_line2": "2 34001  74.0388 268.7028 0020270 348.4120  39.9479 14.37106351882477"
      },
      "geometry": {
        "type": "Point",
        "coordinates": [
          -98.6451774454646,
          -21.87565570869683
        ]
      }
    }
  ]
}